{
  "norad_id": 67426,
  "name": "STARLINK-36146",
  "history": [
    {
      "epoch": "2026-03-28T09:37:28.739712Z",
      "apogee_km": 483.3064939521046,
      "perigee_km": 482.69983193889675,
      "latitude_deg": 7.4627851546749795e-06,
      "longitude_deg": 162.5016531001613,
      "height_km": 483.07213005173264,
      "semi_major_axis_km": 6861.1401629455,
      "eccentricity": 4.421e-05,
      "inclination_deg": 42.9995,
      "raan_deg": 132.6934,
      "arg_perigee_deg": 194.5927,
      "mean_anomaly_deg": 165.4912,
      "mean_motion_rev_day": 15.2759534
    },
    {
      "epoch": "2026-03-29T04:27:21.394656Z",
      "apogee_km": 484.0791382601692,
      "perigee_km": 481.853396360254,
      "latitude_deg": 1.538729999863782e-05,
      "longitude_deg": -125.17340791194977,
      "height_km": 482.7145918486186,
      "semi_major_axis_km": 6861.103267310212,
      "eccentricity": 0.0001622,
      "inclination_deg": 42.9989,
      "raan_deg": 128.2611,
      "arg_perigee_deg": 271.4641,
      "mean_anomaly_deg": 88.6025,
      "mean_motion_rev_day": 15.27607662
    },
    {
      "epoch": "2026-03-30T02:25:32.848896Z",
      "apogee_km": 484.53380857836873,
      "perigee_km": 481.3941687659526,
      "latitude_deg": -4.491872876093392e-05,
      "longitude_deg": -100.79196730996338,
      "height_km": 482.42687232646256,
      "semi_major_axis_km": 6861.10098867216,
      "eccentricity": 0.0002288,
      "inclination_deg": 42.9988,
      "raan_deg": 123.0926,
      "arg_perigee_deg": 281.5524,
      "mean_anomaly_deg": 78.507,
      "mean_motion_rev_day": 15.27608423
    },
    {
      "epoch": "2026-03-30T02:25:32.849760Z",
      "apogee_km": 484.53401441139795,
      "perigee_km": 481.3939629329234,
      "latitude_deg": -4.260731674478731e-05,
      "longitude_deg": -100.79196845472846,
      "height_km": 482.42683111120095,
      "semi_major_axis_km": 6861.10098867216,
      "eccentricity": 0.00022883,
      "inclination_deg": 42.9988,
      "raan_deg": 123.0926,
      "arg_perigee_deg": 281.5524,
      "mean_anomaly_deg": 78.507,
      "mean_motion_rev_day": 15.27608423
    },
    {
      "epoch": "2026-03-30T10:16:19.684704Z",
      "apogee_km": 484.12137826031176,
      "perigee_km": 481.8949366567158,
      "latitude_deg": 1.1979010350718485e-05,
      "longitude_deg": 139.3459066796503,
      "height_km": 482.8277671141438,
      "semi_major_axis_km": 6861.1451574585135,
      "eccentricity": 0.00016225,
      "inclination_deg": 43.0003,
      "raan_deg": 121.2478,
      "arg_perigee_deg": 267.8016,
      "mean_anomaly_deg": 92.265,
      "mean_motion_rev_day": 15.27593672
    },
    {
      "epoch": "2026-03-31T08:14:31.280640Z",
      "apogee_km": 484.2056088907957,
      "perigee_km": 481.8577169743403,
      "latitude_deg": -3.7554826366828414e-05,
      "longitude_deg": 163.72456736874196,
      "height_km": 482.79377862950895,
      "semi_major_axis_km": 6861.168662932568,
      "eccentricity": 0.0001711,
      "inclination_deg": 43.0002,
      "raan_deg": 116.0771,
      "arg_perigee_deg": 270.7255,
      "mean_anomaly_deg": 89.34,
      "mean_motion_rev_day": 15.27585822
    }
  ]
}